{
  "type": "FeatureCollection",
  "features": [
    {
      "type": "Feature",
      "properties": {
        "norad_id": 33886,
        "name": "IRIDIUM 33 DEB",
        "group": "iridium-33-debris",
        "lat": 11.22328469974287,
        "lon": 69.56538632644738,
        "alt_km": 776.6842336019845,
        "timestamp": "2025-12-08T21:31:05.051549+00:00",
        "meta_object_name": "IRIDIUM 33 DEB",
        "meta_object_id": "1997-051BF",
        "meta_epoch": "2025-12-08T15:19:54.741792",
        "meta_mean_motion": 14.36045136,
        "meta_eccentricity": 0.00121044,
        "meta_inclination": 86.383,
        "meta_ra_of_asc_node": 68.9547,
        "meta_arg_of_pericenter": 257.4899,
        "meta_mean_anomaly": 222.0395,
        "meta_ephemeris_type": 0,
        "meta_classification_type": "U",
        "meta_norad_cat_id": 33886,
        "meta_element_set_no": 999,
        "meta_rev_at_epoch": 87993,
        "meta_bstar": 0.00040192881,
        "meta_mean_motion_dot": 1.188e-05,
        "meta_mean_motion_ddot": 0,
        "tle_line1": "1 33886U 97051BF  25342.63882803  .00001188  00000+0  40193-3 0  9991",
        "tle_line2": "2 33886  86.3830  68.9547 0012104 257.4899 222.0395 14.36045136879931"
      },
      "geometry": {
        "type": "Point",
        "coordinates": [
          69.56538632644738,
          11.22328469974287
        ]
      }
    },
    {
      "type": "Feature",
      "properties": {
        "norad_id": 33887,
        "name": "IRIDIUM 33 DEB",
        "group": "iridium-33-debris",
        "lat": -68.38988325192429,
        "lon": -4.340473998103231,
        "alt_km": 773.0172285184462,
        "timestamp": "2025-12-08T21:31:05.051559+00:00",
        "meta_object_name": "IRIDIUM 33 DEB",
        "meta_object_id": "1997-051BG",
        "meta_epoch": "2025-12-08T12:25:25.149216",
        "meta_mean_motion": 14.37215851,
        "meta_eccentricity": 0.00041571,
        "meta_inclination": 86.3048,
        "meta_ra_of_asc_node": 5.2119,
        "meta_arg_of_pericenter": 246.101,
        "meta_mean_anomaly": 245.8633,
        "meta_ephemeris_type": 0,
        "meta_classification_type": "U",
        "meta_norad_cat_id": 33887,
        "meta_element_set_no": 999,
        "meta_rev_at_epoch": 88104,
        "meta_bstar": 0.00027289302,
        "meta_mean_motion_dot": 8.32e-06,
        "meta_mean_motion_ddot": 0,
        "tle_line1": "1 33887U 97051BG  25342.51765219  .00000832  00000+0  27289-3 0  9996",
        "tle_line2": "2 33887  86.3048   5.2119 0004157 246.1010 245.8633 14.37215851881048"
      },
      "geometry": {
        "type": "Point",
        "coordinates": [
          -4.340473998103231,
          -68.38988325192429
        ]
      }
    },
    {
      "type": "Feature",
      "properties": {
        "norad_id": 33953,
        "name": "IRIDIUM 33 DEB",
        "group": "iridium-33-debris",
        "lat": -76.78433075755402,
        "lon": -108.93177101585525,
        "alt_km": 726.3591859892667,
        "timestamp": "2025-12-08T21:31:05.051570+00:00",
        "meta_object_name": "IRIDIUM 33 DEB",
        "meta_object_id": "1997-051BN",
        "meta_epoch": "2025-12-08T15:57:49.132800",
        "meta_mean_motion": 14.55261918,
        "meta_eccentricity": 0.00184777,
        "meta_inclination": 86.3841,
        "meta_ra_of_asc_node": 55.5477,
        "meta_arg_of_pericenter": 115.1859,
        "meta_mean_anomaly": 10.2465,
        "meta_ephemeris_type": 0,
        "meta_classification_type": "U",
        "meta_norad_cat_id": 33953,
        "meta_element_set_no": 999,
        "meta_rev_at_epoch": 88244,
        "meta_bstar": 0.0018443467,
        "meta_mean_motion_dot": 8.026e-05,
        "meta_mean_motion_ddot": 0,
        "tle_line1": "1 33953U 97051BN  25342.66515200  .00008026  00000+0  18443-2 0  9993",
        "tle_line2": "2 33953  86.3841  55.5477 0018477 115.1859  10.2465 14.55261918882441"
      },
      "geometry": {
        "type": "Point",
        "coordinates": [
          -108.93177101585525,
          -76.78433075755402
        ]
      }
    },
    {
      "type": "Feature",
      "properties": {
        "norad_id": 33960,
        "name": "IRIDIUM 33 DEB",
        "group": "iridium-33-debris",
        "lat": 10.380602048830815,
        "lon": -67.98667908316897,
        "alt_km": 612.8371261734237,
        "timestamp": "2025-12-08T21:31:05.051581+00:00",
        "meta_object_name": "IRIDIUM 33 DEB",
        "meta_object_id": "1997-051BV",
        "meta_epoch": "2025-12-08T09:06:17.165376",
        "meta_mean_motion": 14.84831157,
        "meta_eccentricity": 0.00073038,
        "meta_inclination": 86.2539,
        "meta_ra_of_asc_node": 291.5693,
        "meta_arg_of_pericenter": 68.5761,
        "meta_mean_anomaly": 59.0624,
        "meta_ephemeris_type": 0,
        "meta_classification_type": "U",
        "meta_norad_cat_id": 33960,
        "meta_element_set_no": 999,
        "meta_rev_at_epoch": 88802,
        "meta_bstar": 0.003761271,
        "meta_mean_motion_dot": 0.0003209,
        "meta_mean_motion_ddot": 0,
        "tle_line1": "1 33960U 97051BV  25342.37936534  .00032090  00000+0  37613-2 0  9994",
        "tle_line2": "2 33960  86.2539 291.5693 0007303  68.5761  59.0624 14.84831157888021"
      },
      "geometry": {
        "type": "Point",
        "coordinates": [
          -67.98667908316897,
          10.380602048830815
        ]
      }
    },
    {
      "type": "Feature",
      "properties": {
        "norad_id": 33966,
        "name": "IRIDIUM 33 DEB",
        "group": "iridium-33-debris",
        "lat": 77.45744259196749,
        "lon": -148.7978701865928,
        "alt_km": 720.6668841326918,
        "timestamp": "2025-12-08T21:31:05.051591+00:00",
        "meta_object_name": "IRIDIUM 33 DEB",
        "meta_object_id": "1997-051CB",
        "meta_epoch": "2025-12-08T14:59:55.463136",
        "meta_mean_motion": 14.49568872,
        "meta_eccentricity": 0.00069397,
        "meta_inclination": 86.3923,
        "meta_ra_of_asc_node": 47.7931,
        "meta_arg_of_pericenter": 202.2262,
        "meta_mean_anomaly": 283.2245,
        "meta_ephemeris_type": 0,
        "meta_classification_type": "U",
        "meta_norad_cat_id": 33966,
        "meta_element_set_no": 999,
        "meta_rev_at_epoch": 88382,
        "meta_bstar": 0.00095958152,
        "meta_mean_motion_dot": 3.701e-05,
        "meta_mean_motion_ddot": 0,
        "tle_line1": "1 33966U 97051CB  25342.62494749  .00003701  00000+0  95958-3 0  9999",
        "tle_line2": "2 33966  86.3923  47.7931 0006939 202.2262 283.2245 14.49568872883823"
      },
      "geometry": {
        "type": "Point",
        "coordinates": [
          -148.7978701865928,
          77.45744259196749
        ]
      }
    },
    {
      "type": "Feature",
      "properties": {
        "norad_id": 34071,
        "name": "IRIDIUM 33 DEB",
        "group": "iridium-33-debris",
        "lat": 9.518996596979475,
        "lon": -161.1153856503358,
        "alt_km": 724.9998573358889,
        "timestamp": "2025-12-08T21:31:05.051602+00:00",
        "meta_object_name": "IRIDIUM 33 DEB",
        "meta_object_id": "1997-051CE",
        "meta_epoch": "2025-12-08T14:06:28.761696",
        "meta_mean_motion": 14.49437416,
        "meta_eccentricity": 0.00097991,
        "meta_inclination": 86.3455,
        "meta_ra_of_asc_node": 19.6328,
        "meta_arg_of_pericenter": 118.7219,
        "meta_mean_anomaly": 241.4971,
        "meta_ephemeris_type": 0,
        "meta_classification_type": "U",
        "meta_norad_cat_id": 34071,
        "meta_element_set_no": 999,
        "meta_rev_at_epoch": 88274,
        "meta_bstar": 0.00098839003,
        "meta_mean_motion_dot": 3.803e-05,
        "meta_mean_motion_ddot": 0,
        "tle_line1": "1 34071U 97051CE  25342.58783289  .00003803  00000+0  98839-3 0  9996",
        "tle_line2": "2 34071  86.3455  19.6328 0009799 118.7219 241.4971 14.49437416882740"
      },
      "geometry": {
        "type": "Point",
        "coordinates": [
          -161.1153856503358,
          9.518996596979475
        ]
      }
    },
    {
      "type": "Feature",
      "properties": {
        "norad_id": 34077,
        "name": "IRIDIUM 33 DEB",
        "group": "iridium-33-debris",
        "lat": 19.055135539611,
        "lon": -128.05061208841735,
        "alt_km": 680.6638570499235,
        "timestamp": "2025-12-08T21:31:05.051613+00:00",
        "meta_object_name": "IRIDIUM 33 DEB",
        "meta_object_id": "1997-051CL",
        "meta_epoch": "2025-12-08T14:47:19.254912",
        "meta_mean_motion": 14.64744625,
        "meta_eccentricity": 0.00105984,
        "meta_inclination": 86.3858,
        "meta_ra_of_asc_node": 53.3238,
        "meta_arg_of_pericenter": 52.4166,
        "meta_mean_anomaly": 70.6958,
        "meta_ephemeris_type": 0,
        "meta_classification_type": "U",
        "meta_norad_cat_id": 34077,
        "meta_element_set_no": 999,
        "meta_rev_at_epoch": 88272,
        "meta_bstar": 0.0022567741,
        "meta_mean_motion_dot": 0.00012061,
        "meta_mean_motion_ddot": 0,
        "tle_line1": "1 34077U 97051CL  25342.61619508  .00012061  00000+0  22568-2 0  9999",
        "tle_line2": "2 34077  86.3858  53.3238 0010598  52.4166  70.6958 14.64744625882727"
      },
      "geometry": {
        "type": "Point",
        "coordinates": [
          -128.05061208841735,
          19.055135539611
        ]
      }
    }
  ]
}